LEMUR-2-AMANDA-SVANTE   
1 48269U 21034B   26068.77637527  .00030872  00000+0  11134-2 0  9996
2 48269  97.5829 144.8625 0002703 205.4721 154.6385 15.28469003265849
STARLINK-31017          
1 58515U 23191H   26068.71937380  .00000350  00000+0  22252-4 0  9994
2 58515  43.0039 230.9942 0001578 261.0061  99.0612 15.27582052128185
